2026-05-17 03:51:59 | DEBUG | strands_evaluation.instrumentation.agent_plugins | Tool result: {"dataset_id": "kramabench-astronomy-easy-6", "file_path": "files/space-track/58214_storm.csv", "s3_uri": "s3://sana-kramabench/datagov/kramabench-astronomy-easy-6/files/space-track/58214_storm.csv", "size_bytes": 8029, "family": "csv", "preview_text": "CCSDS_OMM_VERS,COMMENT,CREATION_DATE,ORIGINATOR,OBJECT_NAME,OBJECT_ID,CENTER_NAME,REF_FRAME,TIME_SYSTEM,MEAN_ELEMENT_THEORY,EPOCH,MEAN_MOTION,ECCENTRICITY,INCLINATION,RA_OF_ASC_NODE,ARG_OF_PERICENTER,MEAN_ANOMALY,EPHEMERIS_TYPE,CLASSIFICATION_TYPE,NORAD_CAT_ID,ELEMENT_SET_NO,REV_AT_EPOCH,BSTAR,MEAN_MOTION_DOT,MEAN_MOTION_DDOT,SEMIMAJOR_AXIS,PERIOD,APOAPSIS,PERIAPSIS,OBJECT_TYPE,RCS_SIZE,COUNTRY_CODE,LAUNCH_DATE,SITE,DECAY_DATE,FILE,GP_ID,TLE_LINE0,TLE_LINE1,TLE_LINE2\n\"2.0\",\"GENERATED VIA SPACE-TRACK.ORG API\",\"2024-05-10T17:44:02\",\"18 SPCS\",\"STARLINK-30805\",\"2023-170J\",\"EARTH\",\"TEME\",\"UTC\",\"SGP4\",\"2024-05-10T13:03:59.806080\",\"15.02537535\",\"0.00028990\",\"43.0080\",\"226.3847\",\"278.1214\",\"81.9299\",\"0\",\"U\",\"58214\",\"999\",\"2977\",\"-0.00026920000000\",\"-0.00003839\",\"0.0000000000000\",\"6937.212\",\"95.838\",\"561.088\",\"557.066\",\"PAYLOAD\",\"LARGE\",\"US\",\"2023-11-03\",\"AFETR\",\"\",\"4312738\",\"256888979\",\"0 STARLINK-30805\",\"1 58214U 23170J   24131.54444220 -.00003839  00000-0 -26920-3 0  9996\",\"2 58214  43.0080 226.3847 0002899 278.1214  81.9299 15.02537535 29771\"\n\"2.0\",\"GENERATED VIA SPACE-TRACK.ORG API\",\"2024-05-11T02:49:57\",\"18 SPCS\",\"STARLINK-30805\",\"2023-170J\",\"EARTH\",\"TEME\",\"UTC\",\"SGP4\",\"2024-05-10T16:15:27.229536\",\"15.02540313\",\"0.00014720\",\"43.0037\",\"225.6614\",\"276.8779\",\"83.1896\",\"0\",\"U\",\"58214\",\"999\",\"2979\",\"-0.00009585500000\",\"-0.00001498\",\"0.0000000000000\",\"6937.203\",\"95.838\",\"560.089\",\"558.047\",\"PAYLOAD\",\"LARGE\",\"US\",\"2023-11-03\",\"AFETR\",\"\",\"4313042\",\"256923769\",\"0 STARLINK-30805\",\"1 58214U 23170J   24131.67739849 -.00001498  00000-0 -95855-4 0  9997\",\"2 58214  43.0037 225...
2026-05-17 03:51:59 | INFO | strands_evaluation.instrumentation.agent_plugins | 
--- Turn 9 (elapsed: 34.1s) ---
2026-05-17 03:52:00 | DEBUG | strands_evaluation.instrumentation.agent_plugins | Model response #9 [stop_reason=tool_use]
2026-05-17 03:52:00 | DEBUG | strands_evaluation.instrumentation.agent_plugins | Model response #9 [role=assistant block=1 tool_use] peek_file({"dataset_id": "kramabench-astronomy-easy-6", "file_path": "files/space-track/58214_quiet.csv", "max_rows": 20}) [toolUseId=call_1ygP4eBBk1EKeNnXEL973m3q]
2026-05-17 03:52:00 | INFO | strands_evaluation.instrumentation.agent_plugins | Executing: peek_file({"dataset_id": "kramabench-astronomy-easy-6", "file_path": "files/space-track/58214_quiet.csv", "max_rows": 20})
2026-05-17 03:52:00 | DEBUG | strands_evaluation.instrumentation.agent_plugins | Tool result: {"dataset_id": "kramabench-astronomy-easy-6", "file_path": "files/space-track/58214_quiet.csv", "s3_uri": "s3://sana-kramabench/datagov/kramabench-astronomy-easy-6/files/space-track/58214_quiet.csv", "size_bytes": 5115, "family": "csv", "preview_text": "CCSDS_OMM_VERS,COMMENT,CREATION_DATE,ORIGINATOR,OBJECT_NAME,OBJECT_ID,CENTER_NAME,REF_FRAME,TIME_SYSTEM,MEAN_ELEMENT_THEORY,EPOCH,MEAN_MOTION,ECCENTRICITY,INCLINATION,RA_OF_ASC_NODE,ARG_OF_PERICENTER,MEAN_ANOMALY,EPHEMERIS_TYPE,CLASSIFICATION_TYPE,NORAD_CAT_ID,ELEMENT_SET_NO,REV_AT_EPOCH,BSTAR,MEAN_MOTION_DOT,MEAN_MOTION_DDOT,SEMIMAJOR_AXIS,PERIOD,APOAPSIS,PERIAPSIS,OBJECT_TYPE,RCS_SIZE,COUNTRY_CODE,LAUNCH_DATE,SITE,DECAY_DATE,FILE,GP_ID,TLE_LINE0,TLE_LINE1,TLE_LINE2\n\"2.0\",\"GENERATED VIA SPACE-TRACK.ORG API\",\"2024-05-01T20:24:06\",\"18 SPCS\",\"STARLINK-30805\",\"2023-170J\",\"EARTH\",\"TEME\",\"UTC\",\"SGP4\",\"2024-05-01T10:29:14.898336\",\"15.02550424\",\"0.00017220\",\"43.0038\",\"275.8684\",\"265.8547\",\"94.2099\",\"0\",\"U\",\"58214\",\"999\",\"2840\",\"0.00047506000000\",\"0.00006222\",\"0.0000000000000\",\"6937.172\",\"95.837\",\"560.232\",\"557.843\",\"PAYLOAD\",\"LARGE\",\"US\",\"2023-11-03\",\"AFETR\",\"\",\"4304190\",\"256232108\",\"0 STARLINK-30805\",\"1 58214U 23170J   24122.43697799  .00006222  00000-0  47506-3 0  9995\",\"2 58214  43.0038 275.8684 0001722 265.8547  94.2099 15.02550424 28404\"\n\"2.0\",\"GENERATED VIA SPACE-TRACK.ORG API\",\"2024-05-02T02:46:58\",\"18 SPCS\",\"STARLINK-30805\",\"2023-170J\",\"EARTH\",\"TEME\",\"UTC\",\"SGP4\",\"2024-05-01T16:52:09.772896\",\"15.02544581\",\"0.00014870\",\"43.0034\",\"274.4237\",\"269.1676\",\"90.8996\",\"0\",\"U\",\"58214\",\"999\",\"2844\",\"0.00027920000000\",\"0.00003571\",\"0.0000000000000\",\"6937.190\",\"95.837\",\"560.087\",\"558.024\",\"PAYLOAD\",\"LARGE\",\"US\",\"2023-11-03\",\"AFETR\",\"\",\"4304452\",\"256266706\",\"0 STARLINK-30805\",\"1 58214U 23170J   24122.70289089  .00003571  00000-0  27920-3 0  9996\",\"2 58214  43.0034 274.423...
2026-05-17 03:52:00 | INFO | strands_evaluation.instrumentation.agent_plugins | 
--- Turn 10 (elapsed: 34.9s) ---
2026-05-17 03:52:01 | DEBUG | strands_evaluation.instrumentation.agent_plugins | Model response #10 [stop_reason=tool_use]
2026-05-17 03:52:01 | DEBUG | strands_evaluation.instrumentation.agent_plugins | Model response #10 [role=assistant block=1 tool_use] download({"files": [{"dataset_id": "kramabench-astronomy-easy-6", "file_path": "files/space-track/58214_quiet.csv"}, {"dataset_id": "kramabench-astronomy-easy-6", "file_path": "files/space-track/58214_storm.csv"}]}) [toolUseId=call_rx8ekKTEBqHs7DgWsyZEsL0W]
2026-05-17 03:52:01 | INFO | strands_evaluation.instrumentation.agent_plugins | Executing: download({"files": [{"dataset_id": "kramabench-astronomy-easy-6", "file_path": "files/space-track/58214_quiet.csv"}, {"dataset_id": "kramabench-astronomy-easy-6", "file_path": "files/space-track/58214_storm.csv"}]})
2026-05-17 03:52:17 | DEBUG | strands_evaluation.instrumentation.agent_plugins | Tool result: {"downloaded": [{"local_path": "/home/ec2-user/eval_eqa/exploratory-qa-eval/.sandbox_isolated/task_1619566_1778989885821/kramabench-astronomy-easy-6/files/space-track/58214_quiet.csv", "file_path": "files/space-track/58214_quiet.csv", "dataset_id": "kramabench-astronomy-easy-6", "s3_uri": "s3://sana-kramabench/datagov/kramabench-astronomy-easy-6/files/space-track/58214_quiet.csv", "size": 5115, "status": "downloaded"}, {"local_path": "/home/ec2-user/eval_eqa/exploratory-qa-eval/.sandbox_isolated/task_1619566_1778989885821/kramabench-astronomy-easy-6/files/space-track/58214_storm.csv", "file_path": "files/space-track/58214_storm.csv", "dataset_id": "kramabench-astronomy-easy-6", "s3_uri": "s3://sana-kramabench/datagov/kramabench-astronomy-easy-6/files/space-track/58214_storm.csv", "size": 8029, "status": "downloaded"}], "download_count": 2, "sandbox_dir": "/home/ec2-user/eval_eqa/exploratory-qa-eval/.sandbox_isolated/task_1619566_1778989885821", "path_map": {"s3://sana-kramabench/datagov/kramabench-astronomy-easy-6/files/space-track/58214_quiet.csv": "/home/ec2-user/eval_eqa/exploratory-qa-eval/.sandbox_isolated/task_1619566_1778989885821/kramabench-astronomy-easy-6/files/space-track/58214_quiet.csv", "kramabench-astronomy-easy-6/files/space-track/58214_quiet.csv": "/home/ec2-user/eval_eqa/exploratory-qa-eval/.sandbox_isolated/task_1619566_1778989885821/kramabench-astronomy-easy-6/files/space-track/58214_quiet.csv", "kramabench-astronomy-easy-6:files/space-track/58214_quiet.csv": "/home/ec2-user/eval_eqa/exploratory-qa-eval/.sandbox_isolated/task_1619566_1778989885821/kramabench-astronomy-easy-6/files/space-track/58214_quiet.csv", "s3://sana-kramabench/datagov/kramabench-astronomy-easy-6/files/space-track/58214_storm.csv": "/home/ec2-user/eval_eqa/exploratory-qa-eval/.sandbox_isolated/task_1619566_1778989885821/kramabench-astronomy-easy-6/files/space-track/58214_storm.csv", "kramabench-astronomy-easy-6/files/space-track/58214_storm.csv": "/home/ec2-user/eval_eqa/expl...
2026-05-17 03:52:17 | INFO | strands_evaluation.instrumentation.agent_plugins | 
--- Turn 11 (elapsed: 51.6s) ---
2026-05-17 03:52:21 | DEBUG | strands_evaluation.instrumentation.agent_plugins | Model response #11 [stop_reason=tool_use]
